NORAD_CAT_ID,OBJECT_NAME,OBJECT_TYPE,EPOCH,MEAN_MOTION,ECCENTRICITY,INCLINATION,RA_OF_ASC_NODE,ARG_OF_PERICENTER,MEAN_ANOMALY,BSTAR,MEAN_MOTION_DOT,MEAN_MOTION_DDOT,TLE_LINE0,TLE_LINE1,TLE_LINE2,SEMIMAJOR_AXIS,PERIOD,APOGEE,PERIGEE,DECAYED
53986.0,STARLINK-5119,PAYLOAD,2022-12-02 22:00:00,15.61492253,0.000129,53.217,164.7589,67.5764,105.8009,-0.011409,-0.00905487,0.0,0 STARLINK-5119,1 53986U 22125Y   22336.91667824 -.00905487  00000-0 -11409-1 0  9993,2 53986  53.2170 164.7589 0001290  67.5764 105.8009 15.61492253  1303,6761.483,92.219,384.22,382.476,0.0
53986.0,STARLINK-5119,PAYLOAD,2022-12-03 06:00:00,15.60846723,0.000129,53.2171,163.1368,58.6555,189.1859,-0.011827,-0.00914509,0.0,0 STARLINK-5119,1 53986U 22125Y   22337.25001157 -.00914509  00000-0 -11827-1 0  9991,2 53986  53.2171 163.1368 0001290  58.6555 189.1859 15.60846723  9569,6763.347,92.258,386.084,384.34,0.0
53986.0,STARLINK-5119,PAYLOAD,2022-12-03 14:00:01,15.60194839,0.0001240999999999,53.2165,161.5179,58.5615,262.9624,-0.012089,-0.00911748,0.0,0 STARLINK-5119,1 53986U 22125Y   22337.58334491 -.00911748  00000-0 -12089-1 0  9990,2 53986  53.2165 161.5179 0001241  58.5615 262.9624 15.60194839  1304,6765.231,92.296,387.935,386.256,0.0
53986.0,STARLINK-5119,PAYLOAD,2022-12-03 22:00:00,15.59539417,0.0001264,53.217,159.9029,57.5438,336.8817,-0.012315,-0.0090621,0.0,0 STARLINK-5119,1 53986U 22125Y   22337.91667824 -.00906210  00000-0 -12315-1 0  9996,2 53986  53.2170 159.9029 0001264  57.5438 336.8817 15.59539417  1300,6767.126,92.335,389.846,388.136,0.0
53986.0,STARLINK-5119,PAYLOAD,2022-12-04 04:00:00,15.59066897,0.0001334,53.2168,158.6901,47.7501,310.8295,-0.012846,-0.00926335,0.0,0 STARLINK-5119,1 53986U 22125Y   22338.16667824 -.00926335  00000-0 -12846-1 0  9993,2 53986  53.2168 158.6901 0001334  47.7501 310.8295 15.59066897  9703,6768.493,92.363,391.261,389.455,0.0
53986.0,STARLINK-5119,PAYLOAD,2022-12-04 14:00:01,15.58243565,0.0001468,53.2167,156.6714,53.298,124.5793,-0.01305,-0.00913303,0.0,0 STARLINK-5119,1 53986U 22125Y   22338.58334491 -.00913303  00000-0 -13050-1 0  9999,2 53986  53.2167 156.6714 0001468  53.2980 124.5793 15.58243565  1302,6770.877,92.412,393.736,391.74800000000016,0.0
53986.0,STARLINK-5119,PAYLOAD,2022-12-04 22:00:00,15.57578633,0.0001408,53.2169,155.0612,59.0367,189.3996,-0.013077,-0.00894253,0.0,0 STARLINK-5119,1 53986U 22125Y   22338.91667824 -.00894253  00000-0 -13077-1 0  9996,2 53986  53.2169 155.0612 0001408  59.0367 189.3996 15.57578633  1301,6772.804,92.451,395.62300000000016,393.716,0.0
53986.0,STARLINK-5119,PAYLOAD,2022-12-05 12:00:00,15.56457906,0.0001204,53.2164,152.2404,64.089,215.9215,-0.013937,-0.0091192,0.0,0 STARLINK-5119,1 53986U 22125Y   22339.50001157 -.00911920  00000-0 -13937-1 0  9999,2 53986  53.2164 152.2404 0001204  64.0890 215.9215 15.56457906  9918,6776.055,92.518,398.736,397.104,0.0
53986.0,STARLINK-5119,PAYLOAD,2022-12-05 14:00:01,15.5631068,0.00012,53.2164,151.8388,53.6,333.646,-0.014493,-0.00940184,0.0,0 STARLINK-5119,1 53986U 22125Y   22339.58335648 -.00940184  00000-0 -14493-1 0  9994,2 53986  53.2164 151.8388 0001200  53.6000 333.6460 15.56310680  1309,6776.482,92.527,399.16,397.534,0.0
53986.0,STARLINK-5119,PAYLOAD,2022-12-05 22:00:01,15.55630868,0.0001414,53.2174,150.2322,47.7907,47.6755,-0.01418,-0.00900762,0.0,0 STARLINK-5119,1 53986U 22125Y   22339.91668981 -.00900762  00000-0 -14180-1 0  9991,2 53986  53.2174 150.2322 0001414  47.7907  47.6755 15.55630868  1309,6778.456,92.567,401.28,399.36300000000006,0.0
53986.0,STARLINK-5119,PAYLOAD,2022-12-06 06:00:00,15.54981559,0.0001495,53.2173,148.6245,46.475,116.3512,-0.014569,-0.00903217,0.0,0 STARLINK-5119,1 53986U 22125Y   22340.25001157 -.00903217  00000-0 -14569-1 0  9995,2 53986  53.2173 148.6245 0001495  46.4750 116.3512 15.54981559 10034,6780.343000000003,92.606,403.222,401.195,0.0
53986.0,STARLINK-5119,PAYLOAD,2022-12-06 14:00:01,15.54341113,0.0001464,53.2165,147.0205,54.9891,174.5384,-0.015175,-0.00917366,0.0,0 STARLINK-5119,1 53986U 22125Y   22340.58335648 -.00917366  00000-0 -15175-1 0  9990,2 53986  53.2165 147.0205 0001464  54.9891 174.5384 15.54341113  1309,6782.206,92.644,405.064,403.078,0.0
53986.0,STARLINK-5119,PAYLOAD,2022-12-06 22:00:00,15.5367626,0.0001406,53.2167,145.4196,54.0836,241.2442,-0.015189,-0.00897942,0.0,0 STARLINK-5119,1 53986U 22125Y   22340.91667824 -.00897942  00000-0 -15189-1 0  9993,2 53986  53.2167 145.4196 0001406  54.0836 241.2442 15.53676260  1308,6784.14,92.683,406.959,405.051,0.0
53986.0,STARLINK-5119,PAYLOAD,2022-12-07 06:00:00,15.53017802,0.0001315,53.2171,143.8157,42.6759,317.7343,-0.015364,-0.0088766,0.0,0 STARLINK-5119,1 53986U 22125Y   22341.25001157 -.00887660  00000-0 -15364-1 0  9993,2 53986  53.2171 143.8157 0001315  42.6759 317.7343 15.53017802 10184,6786.058000000001,92.723,408.815,407.03,0.0
53986.0,STARLINK-5119,PAYLOAD,2022-12-07 22:00:00,15.51621911,0.0001991,53.2165,140.6198,36.0778,92.1846,-0.013596,-0.00757558,0.0,0 STARLINK-5119,1 53986U 22125Y   22341.91667824 -.00757558  00000-0 -13596-1 0  9992,2 53986  53.2165 140.6198 0001991  36.0778  92.1846 15.51621911 10299,6790.127,92.806,413.344,410.64,0.0
53986.0,STARLINK-5119,PAYLOAD,2022-12-08 00:00:00,15.5156506,0.0001826,53.2167,140.2196,33.5532,200.4147,-0.016516,-0.00903773,0.0,0 STARLINK-5119,1 53986U 22125Y   22342.00001157 -.00903773  00000-0 -16516-1 0  9991,2 53986  53.2167 140.2196 0001826  33.5532 200.4147 15.51565060  1304,6790.293000000002,92.81,413.398,410.918,0.0
53986.0,STARLINK-5119,PAYLOAD,2022-12-08 06:00:00,15.51077109,0.0001858,53.2174,139.0202,33.2214,157.7232,-0.016857,-0.00918663,0.0,0 STARLINK-5119,1 53986U 22125Y   22342.25001157 -.00918663  00000-0 -16857-1 0  9990,2 53986  53.2174 139.0202 0001858  33.2214 157.7232 15.51077109 10340,6791.717,92.839,414.844,412.32,0.0
53986.0,STARLINK-5119,PAYLOAD,2022-12-08 14:00:01,15.5034625,0.0001459,53.2166,137.4263,344.5831,268.3101,-0.0096674,-0.00522547,0.0,0 STARLINK-5119,1 53986U 22125Y   22342.58334491 -.00522547  00000-0 -96674-2 0  9994,2 53986  53.2166 137.4263 0001459 344.5831 268.3101 15.50346250  1305,6793.851,92.882,416.708,414.725,0.0
53986.0,STARLINK-5119,PAYLOAD,2022-12-08 17:33:57,15.5191182,0.0002756,53.214,136.7242,295.9821,64.0905,-0.003985,-0.00236467,0.0,0 STARLINK-5119,1 53986U 22125Y   22342.73191307 -.00236467  00000-0 -39850-2 0  9994,2 53986  53.2140 136.7242 0002756 295.9821  64.0905 15.51911820 10344,6789.281,92.789,413.018,409.275,0.0
53986.0,STARLINK-5119,PAYLOAD,2022-12-08 22:00:01,15.49881492,0.000159,53.2172,135.8333,12.8124,301.4012,0.00011982,6.354e-05,0.0,0 STARLINK-5119,1 53986U 22125Y   22342.91668981  .00006354  00000-0  11982-3 0  9996,2 53986  53.2172 135.8333 0001590  12.8124 301.4012 15.49881492 10443,6795.209,92.91,418.155,415.994,0.0
53986.0,STARLINK-5119,PAYLOAD,2022-12-09 14:00:01,15.49973378,0.0001112,53.2129,132.6509,20.4604,55.4814,-0.0012583,-0.0007144,0.0,0 STARLINK-5119,1 53986U 22125Y   22343.58334491 -.00071440  00000-0 -12583-2 0  9993,2 53986  53.2129 132.6509 0001112  20.4604  55.4814 15.49973378  1309,6794.941,92.905,417.561,416.05,0.0
53986.0,STARLINK-5119,PAYLOAD,2022-12-09 22:00:00,15.49892275,0.0001363,53.213,131.0586,20.5494,116.3948,0.00052168,0.00029275,0.0,0 STARLINK-5119,1 53986U 22125Y   22343.91667824  .00029275  00000-0  52168-3 0  9990,2 53986  53.2130 131.0586 0001363  20.5494 116.3948 15.49892275 10609,6795.178000000001,92.91,417.969,416.117,0.0
53986.0,STARLINK-5119,PAYLOAD,2022-12-10 14:00:01,15.49985327,0.0001238,53.2154,127.8689,34.7693,224.0371,-0.0052879,-0.0029073,0.0,0 STARLINK-5119,1 53986U 22125Y   22344.58334491 -.00290730  00000-0 -52879-2 0  9991,2 53986  53.2154 127.8689 0001238  34.7693 224.0371 15.49985327 10700,6794.906,92.904,417.612,415.93,0.0
53986.0,STARLINK-5119,PAYLOAD,2022-12-10 22:00:00,15.49870979,0.0001669,53.2135,126.279,30.2143,289.5252,0.00067003,0.00037741,0.0,0 STARLINK-5119,1 53986U 22125Y   22344.91667824  .00037741  00000-0  67003-3 0  9992,2 53986  53.2135 126.2790 0001669  30.2143 289.5252 15.49870979 10759,6795.24,92.911,418.239,415.971,0.0
53986.0,STARLINK-5119,PAYLOAD,2022-12-11 00:00:00,15.49895091,0.0001648,53.2134,125.8803,31.5986,33.3616,-9.2992e-05,-5.728e-05,0.0,0 STARLINK-5119,1 53986U 22125Y   22345.00001157 -.00005728  00000-0 -92992-4 0  9992,2 53986  53.2134 125.8803 0001648  31.5986  33.3616 15.49895091  1306,6795.17,92.91,418.155,415.915,0.0
53986.0,STARLINK-5119,PAYLOAD,2022-12-11 14:00:01,15.4995126,0.0001603,53.2137,123.0921,32.5873,48.9818,-0.0021303,-0.0011981,0.0,0 STARLINK-5119,1 53986U 22125Y   22345.58334491 -.00119810  00000-0 -21303-2 0  9999,2 53986  53.2137 123.0921 0001603  32.5873  48.9818 15.49951260 10865,6795.005999999999,92.906,417.96,415.781,0.0
53986.0,STARLINK-5119,PAYLOAD,2022-12-11 22:00:01,15.49860113,0.0001654,53.2132,121.4996,24.64,117.9474,0.00051549,0.00028888,0.0,0 STARLINK-5119,1 53986U 22125Y   22345.91668981  .00028888  00000-0  51549-3 0  9998,2 53986  53.2132 121.4996 0001654  24.6400 117.9474 15.49860113 10915,6795.272,92.912,418.261,416.013,0.0
53986.0,STARLINK-5119,PAYLOAD,2022-12-12 14:00:01,15.49916584,0.0001619,53.2133,118.3134,29.0064,235.3167,-0.00072134,-0.00041223,0.0,0 STARLINK-5119,1 53986U 22125Y   22346.58334491 -.00041223  00000-0 -72134-3 0  9991,2 53986  53.2133 118.3134 0001619  29.0064 235.3167 15.49916584  1302,6795.107,92.908,418.072,415.872,0.0
53986.0,STARLINK-5119,PAYLOAD,2022-12-12 22:00:00,15.49875916,0.0001823,53.2135,116.7203,28.2647,296.9997,-0.00032979,-0.00019118,0.0,0 STARLINK-5119,1 53986U 22125Y   22346.91667824 -.00019118  00000-0 -32979-3 0  9998,2 53986  53.2135 116.7203 0001823  28.2647 296.9997 15.49875916 11069,6795.226,92.911,418.33,415.852,0.0
